[{"OBJECT_NAME":"STARLINK-3209","OBJECT_ID":"2021-115AE","EPOCH":"2026-03-09T11:28:44.184288","MEAN_MOTION":15.08837439,"ECCENTRICITY":0.00014926,"INCLINATION":53.2181,"RA_OF_ASC_NODE":140.0795,"ARG_OF_PERICENTER":97.8265,"MEAN_ANOMALY":262.2897,"EPHEMERIS_TYPE":0,"CLASSIFICATION_TYPE":"U","NORAD_CAT_ID":49752,"ELEMENT_SET_NO":999,"REV_AT_EPOCH":23564,"BSTAR":-3.8247043e-5,"MEAN_MOTION_DOT":-8.97e-6,"MEAN_MOTION_DDOT":0},{"OBJECT_NAME":"OBJECT M","OBJECT_ID":"2017-042M","EPOCH":"2026-03-09T22:38:39.337440","MEAN_MOTION":15.07991931,"ECCENTRICITY":0.0005117,"INCLINATION":97.4139,"RA_OF_ASC_NODE":234.2602,"ARG_OF_PERICENTER":83.1417,"MEAN_ANOMALY":277.0393,"EPHEMERIS_TYPE":0,"CLASSIFICATION_TYPE":"U","NORAD_CAT_ID":42836,"ELEMENT_SET_NO":999,"REV_AT_EPOCH":47205,"BSTAR":0.00047182615,"MEAN_MOTION_DOT":7.201e-5,"MEAN_MOTION_DDOT":0}]
